      2.10          N: GNSS NAV DATA                        RINEX VERSION / TYPE
fic2rin                                 10/12/2023 00:18:06 PGM / RUN BY / DATE
                                                            END OF HEADER
2  23 10 11  2  0  0.0 -.543554779142D-03  .466116034659D-11  .000000000000D+00
     .870000000000D+02  .280312500000D+02  .416553065393D-08  .108246938433D+01
     .104680657387D-05  .160624678247D-01  .104922801256D-04  .515374646759D+04
     .266400000000D+06 -.800937414169D-07 -.210683716897D+00 -.361353158951D-06
     .967910266422D+00  .185718750000D+03 -.133370161647D+01 -.798818988303D-08
    -.757174396496D-10  .100000000000D+01  .228300000000D+04  .000000000000D+00
     .240000000000D+01  .000000000000D+00 -.176951289177D-07  .870000000000D+02
     .259200000000D+06  .400000000000D+01
1  23 10 11  2  0  0.0  .163893215358D-03 -.454747350886D-12  .000000000000D+00
     .560000000000D+02  .498125000000D+02  .358622080906D-08 -.157312214564D+01
     .258348882198D-05  .128686041571D-01  .101495534182D-04  .515363841248D+04
     .266400000000D+06  .303611159325D-06 -.109139449685D+00  .502914190292D-07
     .990715569086D+00  .200718750000D+03  .991348737586D+00 -.748924052836D-08
     .385730352932D-10  .100000000000D+01  .228300000000D+04  .000000000000D+00
     .240000000000D+01  .630000000000D+02  .512227416039D-08  .560000000000D+02
     .259200000000D+06  .400000000000D+01
5  23 10 11  2  0  0.0 -.146027654409D-03 -.147792889038D-11  .000000000000D+00
     .104000000000D+03  .269375000000D+02  .461019203300D-08  .908547543578D+00
     .145100057125D-05  .598672358319D-02  .372715294361D-05  .515373632622D+04
     .266400000000D+06 -.894069671631D-07  .871489764452D+00 -.931322574615D-07
     .967822573261D+00  .316562500000D+03  .123525425613D+01 -.837927760197D-08
     .100004165575D-09  .100000000000D+01  .228300000000D+04  .000000000000D+00
     .240000000000D+01  .000000000000D+00 -.111758708954D-07  .104000000000D+03
     .259200000000D+06  .400000000000D+01
3  23 10 11  2  0  0.0 -.862199813128D-04  .225099938689D-10  .000000000000D+00
     .760000000000D+02  .242187500000D+02  .417838833236D-08 -.277514080334D+01
     .142119824886D-05  .511254591402D-02  .357441604137D-05  .515358390808D+04
     .266400000000D+06  .353902578354D-07  .919845551648D+00 -.186264514923D-07
     .980779552377D+00  .320687500000D+03  .111655371370D+01 -.801854829044D-08
     .173221501085D-09  .100000000000D+01  .228300000000D+04  .000000000000D+00
     .240000000000D+01  .000000000000D+00  .186264514923D-08  .760000000000D+02
     .259200000000D+06  .400000000000D+01
4  23 10 11  2  0  0.0  .180935487151D-03  .108002495836D-10  .000000000000D+00
     .216000000000D+03 -.801562500000D+02  .434982404477D-08  .262205740116D+00
    -.416301190853D-05  .260148535017D-02  .738538801670D-05  .515362108231D+04
     .266400000000D+06  .428408384323D-07  .200054452422D+01  .372529029846D-07
     .963319960109D+00  .238187500000D+03 -.305372151656D+01 -.809569436102D-08
    -.220723479733D-09  .100000000000D+01  .228300000000D+04  .000000000000D+00
     .240000000000D+01  .000000000000D+00 -.419095158577D-08  .728000000000D+03
     .259200000000D+06  .400000000000D+01
27 23 10 11  2  0  0.0 -.532213598490D-04 -.591171556152D-11  .000000000000D+00
     .380000000000D+02 -.432187500000D+02  .469233831187D-08  .644856969407D+00
    -.205077230930D-05  .116864034208D-01  .746548175812D-05  .515366774940D+04
     .266400000000D+06 -.782310962677D-07 -.118052565839D+01  .124797224998D-06
     .965350850281D+00  .237312500000D+03  .741707784341D+00 -.829070248389D-08
    -.598953520247D-09  .100000000000D+01  .228300000000D+04  .000000000000D+00
     .240000000000D+01  .000000000000D+00  .139698386192D-08  .380000000000D+02
     .259200000000D+06  .400000000000D+01
24 23 10 11  2  0  0.0 -.342838931829D-03 -.100044417195D-10  .000000000000D+00
     .900000000000D+02  .100312500000D+02  .497592155282D-08 -.126022464976D+01
     .696629285812D-06  .146295197774D-01  .110268592834D-04  .515363498116D+04
     .266400000000D+06  .352039933205D-06  .292161155687D+01  .206753611565D-06
     .934407353360D+00  .148625000000D+03  .928846222425D+00 -.815712549130D-08
     .328227957726D-09  .100000000000D+01  .228300000000D+04  .000000000000D+00
     .240000000000D+01  .000000000000D+00  .232830643654D-08  .900000000000D+02
     .259200000000D+06  .400000000000D+01
30 23 10 11  2  0  0.0 -.479778740555D-03  .363797880709D-11  .000000000000D+00
     .950000000000D+02  .266250000000D+02  .487234580990D-08 -.237422336972D+01
     .106915831566D-05  .657525018323D-02  .110920518637D-04  .515375876808D+04
     .266400000000D+06  .558793544769D-08  .301864839501D+01 -.558793544769D-07
     .935934148294D+00  .154031250000D+03 -.254995100875D+01 -.805354974839D-08
     .427517807833D-09  .100000000000D+01  .228300000000D+04  .000000000000D+00
     .240000000000D+01  .000000000000D+00  .372529029846D-08  .950000000000D+02
     .259200000000D+06  .400000000000D+01
22 23 10 11  2  0  0.0  .105260871351D-03 -.727595761418D-11  .000000000000D+00
     .540000000000D+02  .186250000000D+02  .500985153757D-08  .115623507401D+01
     .746920704842D-06  .152651137905D-01  .448897480965D-05  .515360216522D+04
     .266400000000D+06  .782310962677D-07 -.213227441633D+01 -.376254320145D-06
     .962990202282D+00  .294718750000D+03 -.117974254810D+01 -.839142096494D-08
     .139291516336D-09  .100000000000D+01  .228300000000D+04  .000000000000D+00
     .240000000000D+01  .000000000000D+00 -.111758708954D-07  .540000000000D+02
     .259200000000D+06  .400000000000D+01
21 23 10 11  2  0  0.0  .147052109241D-03 -.909494701773D-12  .000000000000D+00
     .420000000000D+02  .263125000000D+02  .442089843388D-08  .598847596018D+00
     .903382897377D-06  .248351779301D-01  .989437103271D-05  .515356648636D+04
     .266400000000D+06  .227242708206D-06 -.216510654195D+00 -.404193997383D-06
     .962192533033D+00  .191718750000D+03 -.695757461640D+00 -.826070123422D-08
    -.757174396496D-10  .100000000000D+01  .228300000000D+04  .000000000000D+00
     .240000000000D+01  .000000000000D+00 -.102445483208D-07  .420000000000D+02
     .259200000000D+06  .400000000000D+01
17 23 10 11  2  0  0.0  .723848119378D-03  .000000000000D+00  .000000000000D+00
     .740000000000D+02 -.335625000000D+02  .444661379074D-08  .586954206622D+00
    -.184029340744D-05  .137858246453D-01  .866688787937D-05  .515359353065D+04
     .266400000000D+06 -.150874257088D-06 -.111385768880D+01 -.800937414169D-07
     .972111129313D+00  .224312500000D+03 -.139237130967D+01 -.820748473183D-08
    -.518950187787D-09  .100000000000D+01  .228300000000D+04  .000000000000D+00
     .240000000000D+01  .000000000000D+00 -.111758708954D-07  .740000000000D+02
     .259200000000D+06  .400000000000D+01
20 23 10 11  2  0  0.0  .407455954701D-03 -.193267624127D-11  .000000000000D+00
     .480000000000D+02  .431562500000D+02  .497949313016D-08 -.742180229346D+00
     .223517417908D-05  .409399205819D-02  .362284481525D-05  .515363010979D+04
     .266400000000D+06  .135973095894D-06  .746658297658D+00 -.242143869400D-07
     .950426740814D+00  .305718750000D+03 -.282241625187D+01 -.853356974315D-08
     .200722646618D-09  .100000000000D+01  .228300000000D+04  .000000000000D+00
     .240000000000D+01  .000000000000D+00 -.838190317154D-08  .480000000000D+02
     .259200000000D+06  .400000000000D+01
26 23 10 11  2  0  0.0  .223908573389D-03 -.216004991671D-11  .000000000000D+00
     .710000000000D+02  .481875000000D+02  .561023368875D-08  .239421912797D+01
     .253133475780D-05  .831123348325D-02  .490248203278D-05  .515376112747D+04
     .266400000000D+06 -.210478901863D-06 -.229588906294D+01 -.819563865662D-07
     .932796949731D+00  .270843750000D+03  .476358344454D+00 -.854964184119D-08
     .331085219600D-09  .100000000000D+01  .228300000000D+04  .000000000000D+00
     .240000000000D+01  .000000000000D+00  .698491930962D-08  .710000000000D+02
     .259200000000D+06  .400000000000D+01
13 23 10 11  2  0  0.0  .582591630518D-03  .432009983342D-11  .000000000000D+00
     .370000000000D+02 -.804062500000D+02  .418338854064D-08  .204773311345D+00
    -.421516597271D-05  .760714814533D-02  .901706516743D-05  .515367176056D+04
     .266400000000D+06 -.540167093277D-07  .210521714373D+01  .152736902237D-06
     .970238168463D+00  .212500000000D+03  .945975157171D+00 -.801890544817D-08
    -.251796202608D-09  .100000000000D+01  .228300000000D+04  .000000000000D+00
     .240000000000D+01  .000000000000D+00 -.116415321827D-07  .370000000000D+02
     .259200000000D+06  .400000000000D+01
16 23 10 11  2  0  0.0 -.441061798483D-03  .602540239925D-11  .000000000000D+00
     .760000000000D+02  .293750000000D+02  .504092426044D-08  .155852818899D+01
     .155903398991D-05  .134676856687D-01  .478327274323D-05  .515366509056D+04
     .266400000000D+06 -.312924385071D-06 -.213557882204D+01  .141561031342D-06
     .963717862123D+00  .292781250000D+03  .796024247342D+00 -.846785272005D-08
     .119290683221D-09  .100000000000D+01  .228300000000D+04  .000000000000D+00
     .340000000000D+01  .000000000000D+00 -.102445483208D-07  .760000000000D+02
     .259200000000D+06  .400000000000D+01
15 23 10 11  2  0  0.0  .859005376697D-04  .375166564481D-11  .000000000000D+00
     .900000000000D+02 -.862500000000D+02  .526129058244D-08 -.466105989265D+00
    -.432878732681D-05  .154924730305D-01  .624731183052D-05  .515378718758D+04
     .266400000000D+06 -.689178705215D-07  .182080181143D+01  .210478901863D-06
     .933130357539D+00  .246250000000D+03  .125394074659D+01 -.880929551395D-08
    -.194293807403D-09  .100000000000D+01  .228300000000D+04  .000000000000D+00
     .240000000000D+01  .000000000000D+00 -.107102096081D-07  .900000000000D+02
     .259200000000D+06  .400000000000D+01
